#dP2022  9 25  0  0  0.00000000      96 __u+U ITR14 FIT  IAC
## 2229      0.00000000   900.00000000 59847 0.0000000000000
+  128   C01C02C03C04C05C06C07C08C09C10C11C12C13C14C16C19C20
+        C21C22C23C24C25C26C27C28C29C30C32C33C34C35C36C37C38
+        C39C40C41C42C43C44C45C46C59C60E01E02E03E04E05E07E08
+        E09E10E11E12E13E14E15E18E19E21E24E25E26E27E30E31E33
+        E34E36G01G02G03G04G05G06G07G08G09G10G11G12G13G14G15
+        G16G17G18G19G20G21G22G23G24G25G26G27G28G29G30G31G32
+        J02J03J07R01R02R03R04R05R06R07R08R09R10R11R12R13R14
+        R15R17R18R19R20R21R23R24R25  0  0  0  0  0  0  0  0
++        17 16 17 17 16  9  9  9  9  9  8  9  9  9  9  7  7
++         7  7  7  7  7  7  7  7  7  7  7  7  7  7  7  7  8
++         8  8  7  7  7  8  7  7  0 17  4  4  5  4  4  4  4
++         4  4  4  5  4  5  4  4  4  4  5  5  5  4  4  4  5
++         4  5  4  4  4  4  4  4  4  4  4  4  4  4  4  4  4
++         4  4  4  4  4  4  4  4  4  3  4  4  5  4  4  4  4
++         8  9 17  7  6  6  6  6 15  6  6  6 15  6  6  7  6
++         6  6  6  7  7  6 15  6 11  0  0  0  0  0  0  0  0
%c M  cc GPS ccc cccc cccc cccc cccc ccccc ccccc ccccc ccccc
%c cc cc ccc ccc cccc cccc cccc cccc ccccc ccccc ccccc ccccc
%f  0.0000000  0.000000000  0.00000000000  0.000000000000000
%f  0.0000000  0.000000000  0.00000000000  0.000000000000000
%i    0    0    0    0      0      0      0      0         0
%i    0    0    0    0      0      0      0      0         0
/* INFORMATION & ANALYSIS CENTER (IAC)            RAPID DATA
/* S/V CLOCKS ARE ALIGNED TO GNSS TIME                      
/* G:C1WC2W R:C1PC2P E:C1XC5X C:C2IC6I J:C1CC2S             
/* PCV:IGS14_2218 OL/AL:FES2004  NONE     YN ORB:CoN CLK:CoN
*  2022 09 25 21 30  0.00000000
PC01 -34310.454141  24503.138613    413.484982    696.282017
PC02   4160.904561  41873.366724   -442.326232    487.286845
PC03 -14800.625487  39449.747525    177.257030   -328.806771
PC04 -39580.018012  14488.303378    526.650581   -333.701121
PC05  21878.347013  35987.559998   -920.244738    292.247698
PC06  -5037.223091  24805.936308 -33686.742163    913.993137
PC07 -18170.146178  33588.923425  17744.439154   -191.159090
PC08  -5167.835260  39601.424868  13804.463696    480.393496
PC09   4814.395320  28130.680840 -30507.594304   -852.857479
PC10 -10554.216147  33527.849122  23232.169901     92.108208
PC11 -10759.784057 -17823.095577 -18495.351052   -387.657744
PC12   8930.422639 -12793.393456 -23100.687192   -505.264925
PC13    -86.522946  41848.757727   6440.551197     90.349714
PC14   -711.421171 -18164.588614  21197.243952    677.259615
PC16  -9178.891564  22250.304767 -34421.588541    134.972943
PC19  10237.916613  11992.044364 -23009.036491   -736.111850
PC20  -7191.802523  20811.826843 -17124.807646    782.792174
PC21  21592.796948 -17688.829877    466.702143   -472.319260
PC22  22590.895747  -4126.109693 -15880.655875   -783.912740
PC23 -16619.673732  -5654.299879 -21680.594709   -257.704814
PC24   1260.178165 -26903.580312   7245.990069   -316.676070
PC25 -12131.296783 -22447.051072 -11279.020143      0.717247
PC26  11462.834532 -16190.819614  19603.142043    -12.683216
PC27 -17523.477351   7963.617914  20188.813074     26.454605
PC28 -26413.027732  -5320.699251   7250.398044     17.165569
PC29  20396.327300  15532.415614  11022.445548     18.445297
PC30   1349.807250  16880.693226  22171.756012      0.130623
PC32 -21490.787667  17792.026546   -354.791653   -786.835249
PC33 -10207.268588 -12058.754272  22998.143998   -754.687243
PC34  -2611.417187 -17181.702386 -21847.177301      2.925724
PC35  26725.905597   5357.351866  -5925.010922     13.474224
PC36  11328.798899  23120.173503  10802.915269   -384.777375
PC37 -12412.246400  14743.078036 -20171.921677   -310.331041
PC38 -10027.461760  35743.673171  20174.078441     26.776819
PC39 -13869.446932  20037.746388 -34407.009216     -0.507716
PC40 -25783.911125  28700.744175  16752.207649     -4.839820
PC41 -22394.191913   3668.426751  16284.795204   -113.068272
PC42   8248.968579 -21102.158505  16337.636210   -360.944905
PC43 -19766.749972 -15913.800870 -11634.398411     16.228193
PC44  17412.754932  -8605.946385 -20038.806275     61.749057
PC45  16521.250151   5289.738850  21870.313902     -2.206983
PC46    -23.178618  27347.274785  -5658.620213     -2.251488
PC59      0.000000      0.000000      0.000000 999999.999999
PC60   7319.483934  41514.056187   1123.323210     -0.658725
PE01  18943.178197  -8196.035098  21223.778494   -535.056856
PE02 -18955.373474   8422.772421 -21116.740632    326.933169
PE03 -29121.020235   5125.526628  -1237.405171   -603.518391
PE04  18130.694759 -15261.880971  17736.335893  -1123.294210
PE05 -23232.232480  -8263.619719  16371.274543   -140.506496
PE07   3942.304250  16625.532543 -24171.695389   -708.276180
PE08 -18022.081742  15236.524865 -17865.515595   -604.886024
PE09  -3789.584551 -16501.989249  24275.851099   -671.381634
PE10  -1662.474721 -22174.263764 -19538.602994   -479.355659
PE11 -10607.478796 -25186.231591 -11385.887091   2066.215369
PE12   7043.365534 -16013.026347 -23883.140500   -188.906658
PE13  10053.265802  25068.002038  12119.358139    430.619587
PE14 -15474.889145  11237.551895  13590.526191     10.017144
PE15  -7138.364640  15806.777322  23990.863932    718.066604
PE18  19205.259448 -16540.898736 -20341.576319   -933.860639
PE19  29386.088520  -3302.355822  -1290.610749  -4432.934453
PE21  12874.292701  11789.802310  23911.918512   -759.840780
PE24   1805.893737 -26864.704379 -12275.950330   -856.966900
PE25 -12699.850943 -12084.850033 -23835.993872   -588.605666
PE26  21414.451027  18995.135675  -7561.444936  -1655.234359
PE27   -957.262449  26515.357088  13142.779592   -400.670562
PE30 -14623.467223  25026.293807  -6039.523041   -866.149402
PE31  14107.494470 -25480.854206   5285.881479   -504.359255
PE33  20017.382819   2731.848760 -21633.538981   -454.087288
PE34 -19939.386084  -2499.676259  21719.018007     -6.339935
PE36 -21183.565942 -19539.846366   6745.678593   -436.799736
PG01 -18557.987183  -8685.067838  16778.433578    277.753064
PG02  19806.387500  13119.967639 -11087.663037   -644.757103
PG03 -16139.907432    453.247102  20939.259217   -356.550664
PG04 -26442.378706  -1351.498538   2707.238344   -113.273112
PG05  11086.669800  11571.389465 -21339.516189    -98.035584
PG06   4236.550109  22645.135272  13209.518085    472.503336
PG07 -13268.965177   7516.525876 -21335.584789    304.522643
PG08 -22975.978920  -6594.858149 -11991.267008    -86.152268
PG09 -24048.206191   7732.610697  -8352.099503   -291.454761
PG10  11088.018244 -23923.090321   1242.603402     -4.843738
PG11  11711.748496  23723.690470   2551.216747    -19.515691
PG12  16029.230836   1207.350507  20859.781985   -284.100060
PG13  15967.823267  13026.710726 -17028.196777    394.415186
PG14 -13196.476007  22971.446021   -622.887233   -100.753827
PG15  23555.239542   4701.417380 -12089.510492    -26.030541
PG16  -4957.893839 -17454.256624 -19509.509225   -525.040958
PG17 -13354.241806  12981.556128  19398.110586    662.743694
PG18  12078.330228  -8867.756590 -21932.266006     36.208811
PG19  -1951.815900  14662.342669  21813.664438    215.540203
PG20   2909.582082  22863.408500 -13390.008504    483.448332
PG21 -20428.564358 -14724.191782  10147.194680    158.958082
PG22  -1310.465828 -15398.672946  22030.212774    334.397194
PG23  15924.648491 -19102.162759  -9150.659913     -0.446316
PG24  20538.887308  11034.771895  12777.573896    122.744499
PG25  17887.207674 -11598.344021  15376.062068    375.896922
PG26    717.577701 -23631.357071 -11859.476305    230.037610
PG27 -12797.206157 -12823.891545 -19772.313680    207.170230
PG28  -7703.865194  24056.390175   9102.362432    335.549204
PG29  25048.924771  -4646.258124  -7705.336523   -554.601796
PG30  -4845.599814  18052.564851 -18684.740587   -537.143936
PG31  -4394.235998 -23023.041156  11891.313901   -194.639691
PG32   9551.904293 -14698.118831  20045.745436   -244.224203
PJ02 -24810.970017  31848.094351  -7625.551216     -5.803989
PJ03 -26985.102463  22089.103811  28755.311942     -2.042216
PJ07 -25401.744460  33655.874550    -57.838307     -0.047647
PR01 -16710.713187  15652.293308 -11241.252082     15.295892
PR02    348.342454  11805.834481 -22580.730309    -22.774477
PR03  16497.324332   1572.136239 -19330.458193     64.368739
PR04  23107.343128  -9309.352002  -5425.116278    158.910849
PR05  17123.285325 -15009.131506  11473.144004    100.220626
PR06  -2001.396521 -11407.963484  22707.565151    -71.752538
PR07 -17102.962330  -1058.958444  18948.407924     41.567889
PR08 -23116.418398   9416.686860   5386.523500    -67.363173
PR09  -3076.818567 -24458.880467  -6685.643205     78.678920
PR10  -9087.001937 -13789.792893 -19414.634530    -86.365443
PR11 -10711.508329   5816.650689 -22390.801372     26.370579
PR12  -5796.532615  22328.503059 -10873.659817     21.591820
PR13   2148.787923  24861.550972   5279.738497    -27.176234
PR14   9537.247885  12292.928301  20224.849152     24.235204
PR15  10814.156045  -6792.557823  22106.541640     93.530831
PR17  21759.011882  13346.709449   -659.805402    563.971930
PR18  19324.445556   3778.558247 -16177.257847     44.157896
PR19   8253.982404  -6798.517082 -23159.602383   -205.010805
PR20 -10881.043683 -16232.375618 -16404.909978    -79.048718
PR21 -21941.227088 -12765.574622   2303.587776   -336.616285
PR23  -3153.914046  10253.271718  23135.475305    -56.219808
PR24  11694.982206  16295.311599  15792.015599    116.677397
PR25 -19022.783624  -3767.148775  16600.990888 999999.999999
EOF
